#cP2013  5 30  0  0  0.00000000      96 ORBIT IGb08 HLM  IGS
## 1742 345600.00000000   900.00000000 56442 0.0000000000000
+   31   G01G02G03G04G05G06G07G08G09G10G11G12G13G14G15G16G17
+        G18G19G20G21G22G23G24G25G26G28G29G30G31G32  0  0  0
+          0  0  0  0  0  0  0  0  0  0  0  0  0  0  0  0  0
+          0  0  0  0  0  0  0  0  0  0  0  0  0  0  0  0  0
+          0  0  0  0  0  0  0  0  0  0  0  0  0  0  0  0  0
++         2  2  2  2  2  2  2  2  2  2  2  2  2  2  2  2  2
++         2  2  2  2  2  2  2  2  2  2  2  0  2  2  0  0  0
++         0  0  0  0  0  0  0  0  0  0  0  0  0  0  0  0  0
++         0  0  0  0  0  0  0  0  0  0  0  0  0  0  0  0  0
++         0  0  0  0  0  0  0  0  0  0  0  0  0  0  0  0  0
%c G  cc GPS ccc cccc cccc cccc cccc ccccc ccccc ccccc ccccc
%c cc cc ccc ccc cccc cccc cccc cccc ccccc ccccc ccccc ccccc
%f  1.2500000  1.025000000  0.00000000000  0.000000000000000
%f  0.0000000  0.000000000  0.00000000000  0.000000000000000
%i    0    0    0    0      0      0      0      0         0
%i    0    0    0    0      0      0      0      0         0
/* FINAL ORBIT COMBINATION FROM WEIGHTED AVERAGE OF:        
/* cod emr esa gfz grg jpl mit ngs sio                      
/* REFERENCED TO IGS TIME (IGST) AND TO WEIGHTED MEAN POLE: 
/* PCV:IGS08_1740 OL/AL:FES2004  NONE     Y  ORB:CMB CLK:CMB
*  2013  5 30  8 15  0.00000000
PG01  -6820.610993  18732.546583 -17522.582389     31.696461  6  6  7 117       
PG02  22577.866659 -13313.123088  -1697.155338    434.604236  6  4  6 124       
PG03 -10384.210126  16159.319789  17737.686639    213.588946  3  3  5 118       
PG04  23553.988829  -4452.766286 -12015.860028    231.874230  6  6  5 111       
PG05  16948.093239  -6731.360252  19330.948818   -395.873838  6  5  5 139       
PG06 -14025.268067   9492.554052  20459.456592    210.120100  3  5  5 120       
PG07   9126.910155  11894.764978  21977.450301    219.456725  3  7  5 108       
PG08  18294.866037   4805.665951  19004.283563      6.445422  5  6  4  90       
PG09  23290.350405  -6373.012179  10575.934456    244.351797  4  6  4 129       
PG10  24561.670655   7735.932206   7039.970190    -81.672559     5  3 114       
PG11  -9515.303904  22883.131252  -9624.991705   -386.761371  7  6  3 124       
PG12   -120.784098 -16227.088639 -21107.443721    136.558201  9  8  8 129       
PG13   4915.641146  24126.204357   9648.018777    114.402502  6  6  6 114       
PG14 -13937.975056  -8113.243868 -20934.876392    220.689596  3  7  3  91       
PG15   4324.891126 -24761.122341   8140.695057   -121.197210  8  5  7 130       
PG16 -17410.958760   4741.709686  19584.484102   -251.760262  4  7  5 123       
PG17  14225.299603   8460.114924 -20604.588202     14.260928  4  6  3 130       
PG18 -19871.460427 -16590.358848   7127.832744    256.147765  5  8  7 122       
PG19  -8887.509635  22205.748438  10983.975597   -377.008369  5  7  6 134       
PG20   4969.510166  18031.585622 -19055.995459    100.771398  6  5  3 110       
PG21 -13713.157060  -9943.712285  21118.548007   -300.341414  5  8  7 151       
PG22 -24452.307546  -9763.458340  -3851.148297    169.713138  3  7  6 118       
PG23    751.897539  26329.400378    165.927444     80.978957  6  7  3 140       
PG24  10406.366554 -19208.911415 -15089.556679     -7.265861  6  5  8 123       
PG25 -12378.315877 -18085.688893 -15130.993884    103.475215  5  7  8 109       
PG26  12488.811587 -14891.658859  17306.512723     33.121103  5  6  6 129       
PG28  22870.286792  13668.029684   -222.236576    262.969732  3  6  2  87       
PG29  -5656.953254 -24520.407434   8622.651637    440.291937  8  7  6 130       
PG30 -24325.064693  -6790.088421   8391.365536 999999.999999
PG31 -23608.590610   5360.603875 -11074.167968    316.086499  5  7  7 127       
PG32  -4704.579887  15090.588110 -21266.263602   -557.993412  5  7  2 120       
*  2013  5 30  8 30  0.00000000
PG01  -8493.636693  19650.256287 -15680.598701     31.700320  6  7  7 110       
PG02  22469.022930 -12799.540511  -4506.999626    434.605673  6  4  5 123       
PG03 -11027.609640  14027.943184  19093.021253    213.592773  3  3  5 117       
PG04  22478.657498  -3444.258141 -14228.912215    231.883508  6  6  4 110       
PG05  18807.534395  -5672.915287  17913.019331   -395.874756  7  6  5 139       
PG06 -14428.897092   7147.908986  21156.851135    210.104696  3  5  5 112       
PG07   7017.927500  13238.719031  21957.178569    219.460712  4  7  4 112       
PG08  16357.585270   5862.111229  20378.505909      6.445182  5  5  3 100       
PG09  22206.674010  -5434.163194  13015.037019    244.354463  3  6  4 129       
PG10  25045.302911   8281.530080   4342.674087    -81.672929  1  6  4 116       
PG11 -10432.809202  23332.524217  -7140.054217   -386.764524  7  6  2 116       
PG12   2050.678270 -15119.021234 -21802.147863    136.559954  9  8  7 130       
PG13   4692.719795  25088.649918   6958.549212    114.399122  7  6  6 114       
PG14 -13860.797527 -10484.705297 -19931.093572    220.689431  4  7  3  76       
PG15   4728.761814 -23704.490697  10682.108514   -121.198744  7  4  6 120       
PG16 -19246.750255   3633.465626  18075.869756   -251.759893  4  7  5 123       
PG17  14208.476969  10794.897822 -19528.878923     14.257315  4  6  2 140       
PG18 -18929.488896 -16450.604950   9672.747766    256.149463  5  8  7 117       
PG19  -9092.162887  20780.135218  13369.280780   -377.011216  4  6  5 133       
PG20   2875.911248  17284.393337 -20151.255691    100.773268  5  6  2 113       
PG21 -11798.619322 -11270.239810  21569.292809   -300.343890  5  8  7 146       
PG22 -24573.685864 -10206.008839  -1095.498293    169.714746  4  7  6 114       
PG23    443.441640  26192.421717  -2699.082823     80.975505  6  6  2 138       
PG24  11841.915889 -19948.132725 -12909.468691     -7.266824  7  5  8 122       
PG25 -10669.404989 -17421.470969 -17083.422337    103.479354  5  6  8 120       
PG26  12579.599752 -12690.873776  18894.815935     33.135485  4  6  6 125       
PG28  22718.826327  13784.661741   2663.575471    262.972986  3  6  2  81       
PG29  -5451.812182 -25349.268934   5922.473412    440.295082  8  6  7 127       
PG30 -24972.608870  -7320.645633   5664.513593 999999.999999
PG31 -22496.703510   4470.871011 -13462.241234    316.087661  5  8  7 129       
PG32  -6829.648900  13819.977048 -21503.857880   -557.994376  5  7  2 113       
*  2013  5 30  8 45  0.00000000
PG01  -9939.107528  20517.958558 -13568.029548     31.704181  6  7  6 120       
PG02  22136.536686 -12083.533210  -7236.472656    434.607132  6  4  5 127       
PG03 -11805.738604  11796.655385  20103.481339    213.597248  1  3  5 122       
PG04  21269.313843  -2242.800197 -16204.274089    231.892944  6  6  4 130       
PG05  20553.130207  -4778.341310  16187.703461   -395.875549  7  6  5 139       
PG06 -14957.016237   4772.461188  21491.327553    210.090206  2  5  5 130       
PG07   5001.827717  14683.235148  21560.054765    219.464550  4  6  4 113       
PG08  14366.798862   7103.395985  21410.632367      6.445034  5  5  3 103       
PG09  20963.027902  -4269.417500  15223.597367    244.356078  3  6  3 129       
PG10  25275.208549   8675.930147   1572.046782    -81.673819  2  6  4 123       
PG11 -11168.598212  23587.850601  -4531.948578   -386.767636  6  6  2 119       
PG12   4334.972435 -14109.863670 -22123.833005    136.561979 10  7  7 138       
PG13   4514.730872  25747.897149   4147.878872    114.396042  7  5  6 120       
PG14 -13904.104361 -12720.504860 -18579.825260    220.689496  5  6  4 108       
PG15   5225.811560 -22394.374764  13036.888233   -121.199957  6  3  5 121       
PG16 -20970.535972   2712.835298  16259.415935   -251.759711  4  7  5 134       
PG17  14302.265710  12982.853615 -18113.043571     14.253474  4  7  3 138       
PG18 -17731.757601 -16248.749144  12057.053793    256.150811  5  8  7 110       
PG19  -9378.672382  19108.644584  15518.417690   -377.013927  4  6  6 133       
PG20    651.991266  16602.309411 -20905.314716    100.774864  5  6  2 113       
PG21  -9924.157296 -12710.340317  21668.465206   -300.345632  5  8  7 145       
PG22 -24430.365049 -10519.444850   1678.875225    169.715765  4  7  5 116       
PG23     90.878387  25748.542122  -5516.432431     80.972483  6  5  2 138       
PG24  13032.556701 -20601.591682 -10506.915110     -7.268050  7  5  8 137       
PG25  -8737.786465 -16773.675072 -18744.187505    103.483404  5  5  8 119       
PG26  12793.346112 -10331.828488  20136.813309     33.149691  5  7  6 124       
PG28  22286.366099  13765.337993   5504.348234    262.976120  3  6  3  89       
PG29  -5265.780012 -25877.855009   3120.780718    440.298349  8  6  7 130       
PG30 -25359.869563  -7689.571977   2840.942695 999999.999999
PG31 -21226.529342   3367.106102 -15619.530792    316.088851  6  8  7 126       
PG32  -9025.318120  12651.980375 -21367.169864   -557.995132  6  7  2 118       
EOF
